STARLINK-2686           
1 48464U 21040AN  26018.47804316 -.00001628  00000+0 -90405-4 0  9993
2 48464  53.0540  57.0315 0001482  98.1512 261.9645 15.06392884258922
STARLINK-2681           
1 48465U 21040AP  26018.35639046 -.00001954  00000+0 -11232-3 0  9999
2 48465  53.0546  57.5720 0001531  83.6554 276.4609 15.06401949258917
STARLINK-2687           
1 48466U 21040AQ  26018.54069581  .00001738  00000+0  13554-3 0  9999
2 48466  53.0541  56.7469 0001471  81.8638 278.2518 15.06407107258944
STARLINK-2659           
1 48467U 21040AR  26018.83188423 -.00000046  00000+0  15788-4 0  9993
2 48467  53.0551  55.4398 0001493  83.9007 276.2152 15.06398935258984
STARLINK-2685           
1 48468U 21040AS  26018.48172597 -.00001087  00000+0 -54119-4 0  9998
2 48468  53.0542  57.0134 0001332  88.0171 272.0971 15.06397012258934
STARLINK-2661           
1 48469U 21040AT  26018.82819993 -.00001260  00000+0 -65740-4 0  9990
2 48469  53.0550  55.4565 0001462  79.2599 280.8554 15.06396582258984
STARLINK-2675           
1 48470U 21040AU  26018.39330309 -.00000491  00000+0 -14073-4 0  9991
2 48470  53.0514  57.7522 0001464  84.7681 275.3475 15.06392942258908
STARLINK-2684           
1 48471U 21040AV  26018.48543147 -.00002776  00000+0 -16767-3 0  9997
2 48471  53.0551  56.9968 0001616  84.2749 275.8425 15.06371325258928
STARLINK-2722           
1 48472U 21040AW  26018.53334218  .00005003  00000+0  35448-3 0  9992
2 48472  53.0539  56.7815 0001160  90.6853 269.4269 15.06401438258929
STARLINK-2658           
1 48473U 21040AX  26018.37114494 -.00000157  00000+0  83369-5 0  9990
2 48473  53.0546  57.5087 0001158  83.6861 276.4260 15.06396002258903
STARLINK-2697           
1 48474U 21040AY  26018.40432067 -.00002640  00000+0 -15844-3 0  9995
2 48474  53.0546  57.3597 0001454  89.9877 270.1278 15.06388605258903
STARLINK-2619           
1 48475U 21040AZ  26018.86403933  .01173404  86660-3  12046-2 0  9992
2 48475  53.0148 317.8310 0008118 109.3857 250.8055 16.10222672260344
STARLINK-2728           
1 48478U 21040BC  26018.51489074 -.00004893  00000+0 -30985-3 0  9996
2 48478  53.0540  56.8619 0001292  86.4234 273.6903 15.06394349258926
STARLINK-2755           
1 48479U 21040BD  26018.51121277 -.00001216  00000+0 -62752-4 0  9999
2 48479  53.0542  56.8777 0001399  93.1856 266.9293 15.06391221258920
STARLINK-2706           
1 48481U 21040BF  26019.00003472  .00956174  00000+0  33981-1 0  9992
2 48481  53.1401  64.2344 0001239  82.1782 158.1729 15.25906599  5792
STARLINK-2525           
1 48482U 21040BG  26019.00003472  .01451806  00000+0  66156-1 0  9996
2 48482  53.0981  64.4615 0001982  82.4687  58.0259 15.17116314  5807
STARLINK-2531           
1 48483U 21040BH  26019.00003472  .00111715  00000+0  55885-2 0  9996
2 48483  53.0925  64.4952 0002201  65.3132  77.4369 15.16538391  5607
STARLINK-2500           
1 48485U 21040BK  26019.00003472  .01515010  00000+0  64932-1 0  9997
2 48485  53.1068  64.3880 0002007  89.2627  72.0174 15.19121232  5795
STARLINK-2494           
1 48487U 21040BM  26019.00003472  .00117838  00000+0  57948-2 0  9994
2 48487  53.0954  64.4526 0001798  62.9134  22.8303 15.17103600  5799
STARLINK-2063           
1 48553U 21041A   26018.65311649  .00000415  00000+0  46791-4 0  9995
2 48553  53.0542 356.2411 0001569 102.0584 258.0580 15.06389496257664
STARLINK-2139           
1 48554U 21041B   26018.88906316  .00003756  00000+0  27097-3 0  9990
2 48554  53.0549 355.4892 0001188  84.9396 275.1728 15.06389751257693
STARLINK-2145           
1 48555U 21041C   26018.68907021  .00000664  00000+0  63476-4 0  9990
2 48555  53.0545   6.0790 0000939  99.2040 260.9056 15.06388713257529
STARLINK-2151           
1 48556U 21041D   26018.67799857  .00000289  00000+0  38275-4 0  9998
2 48556  53.0541   6.1306 0001329  90.8536 269.2605 15.06406445257526
STARLINK-2155           
1 48557U 21041E   26018.94798984  .00000754  00000+0  69536-4 0  9990
2 48557  53.0584 354.9148 0001738  95.2044 264.9143 15.06398276257700
STARLINK-2166           
1 48558U 21041F   26018.94430741  .00000820  00000+0  73968-4 0  9993
2 48558  53.0556 354.9338 0001247  91.7343 268.3789 15.06396045256849
STARLINK-2187           
1 48562U 21041K   26018.19238153  .00001421  00000+0  11424-3 0  9994
2 48562  53.0546 358.3105 0002313  84.5797 275.5456 15.06408084257592
STARLINK-2188           
1 48563U 21041L   26018.21081018 -.00001241  00000+0 -64434-4 0  9996
2 48563  53.0567 358.2259 0001382  93.5514 266.5633 15.06388691257595
STARLINK-2190           
1 48564U 21041M   26018.66787066 -.00001286  00000+0 -67480-4 0  9995
2 48564  53.0563 356.1753 0001508  97.7334 262.3827 15.06396710257662
STARLINK-2214           
1 48566U 21041P   26018.68536134 -.00001064  00000+0 -52523-4 0  9993
2 48566  53.0563   6.0678 0001534  89.4890 270.6274 15.06401707257521
STARLINK-2217           
1 48568U 21041R   26018.64575257 -.00000296  00000+0 -98679-6 0  9990
2 48568  53.0560 356.2743 0001354  89.6059 270.5085 15.06391265257652
STARLINK-2219           
1 48569U 21041S   26018.93694226  .00004128  00000+0  29578-3 0  9996
2 48569  53.0550 354.9662 0001455  95.8051 264.3103 15.06412036257708
STARLINK-2220           
1 48570U 21041T   26018.65956820 -.00001579  00000+0 -87102-4 0  9995
2 48570  53.0557   6.2120 0001356  92.3380 267.7764 15.06400297257515
STARLINK-2221           
1 48571U 21041U   26018.93232514  .00001596  00000+0  12601-3 0  9992
2 48571  53.0550   4.9884 0001386  93.6357 266.4791 15.06399852257567
STARLINK-2222           
1 48572U 21041V   26018.66324991 -.00003605  00000+0 -22331-3 0  9990
2 48572  53.0562   6.1952 0001597  87.3500 272.7672 15.06388158257526
STARLINK-2224           
1 48573U 21041W   26018.64205303 -.00002409  00000+0 -14286-3 0  9995
2 48573  53.0556 356.2905 0001444  89.7134 270.4021 15.06401058257659
STARLINK-2225           
1 48574U 21041X   26018.87704876  .00006285  00000+0  44034-3 0  9998
2 48574  53.0563 325.3214 0001350  88.8261 271.2883 15.06410199258118
STARLINK-2227           
1 48575U 21041Y   26018.95908732  .00001170  00000+0  97417-4 0  9997
2 48575  53.0548 315.1849 0001523  99.6859 260.4303 15.06397771258272
STARLINK-2228           
1 48576U 21041Z   26018.56143402 -.00000659  00000+0 -25379-4 0  9991
2 48576  53.0570 331.6531 0001351  96.1201 263.9942 15.06392508258002
STARLINK-2231           
1 48577U 21041AA  26018.92591536  .00006740  00000+0  47084-3 0  9998
2 48577  53.0546 355.2865 0001565  73.2411 286.8750 15.06406159257697
STARLINK-2232           
1 48578U 21041AB  26018.92963444  .00001187  00000+0  98593-4 0  9992
2 48578  53.0520 355.5104 0001783  88.4341 271.6852 15.06400160257692
STARLINK-2234           
1 48580U 21041AD  26018.59092296  .00000640  00000+0  61850-4 0  9995
2 48580  53.0557 331.5299 0001450  91.3017 268.8138 15.06394684258002
STARLINK-2235           
1 48581U 21041AE  26018.81668642  .00005667  00000+0  39913-3 0  9993
2 48581  53.0562 320.5173 0001630  93.2248 266.8928 15.06391033258184
STARLINK-2236           
1 48582U 21041AF  26018.53288606 -.00000890  00000+0 -40841-4 0  9999
2 48582  53.0568 321.9439 0001618  92.6105 267.5069 15.06396645258135
STARLINK-2237           
1 48583U 21041AG  26018.67062289 -.00001580  00000+0 -87252-4 0  9996
2 48583  53.0561   6.1612 0001354  87.0956 273.0188 15.06389866257526
STARLINK-2238           
1 48584U 21041AH  26018.97655777 -.00000206  00000+0  50902-5 0  9996
2 48584  53.0562   4.7878 0001368  85.9558 274.1587 15.06399841257569
STARLINK-2241           
1 48586U 21041AK  26018.64851090  .00000018  00000+0  20113-4 0  9998
2 48586  53.0567   6.2608 0001350  85.1710 274.9434 15.06395506257515
STARLINK-2245           
1 48589U 21041AN  26018.62731496  .00002482  00000+0  18549-3 0  9992
2 48589  53.0577 356.3551 0001403  76.6264 283.4882 15.06393517257650
STARLINK-2249           
1 48592U 21041AR  26018.37578099 -.00001165  00000+0 -59319-4 0  9996
2 48592  53.0563   7.7169 0001286  86.8534 273.2603 15.06396254257472
STARLINK-2250           
1 48593U 21041AS  26018.69273868  .00000343  00000+0  41892-4 0  9990
2 48593  53.0565   6.0634 0001451  84.5219 275.5935 15.06400644257521
STARLINK-2251           
1 48594U 21041AT  26018.58862871 -.00000681  00000+0 -26800-4 0  9996
2 48594  53.0570 336.6179 0001457  90.7113 269.4043 15.06396838257938
STARLINK-2252           
1 48595U 21041AU  26018.93967683  .00002602  00000+0  19339-3 0  9994
2 48595  53.0542   4.9550 0001331  79.0399 281.0740 15.06420223258833
STARLINK-2253           
1 48596U 21041AV  26018.69642578 -.00000678  00000+0 -26601-4 0  9995
2 48596  53.0560   6.0450 0001402 101.4140 258.7007 15.06395041257980
STARLINK-2255           
1 48597U 21041AW  26018.37206864 -.00000511  00000+0 -15406-4 0  9992
2 48597  53.0555   7.5023 0001406  93.4587 266.6563 15.06392766258747
STARLINK-2713           
1 48602U 21041BB  26018.89962126  .00001119  00000+0  94027-4 0  9995
2 48602  53.0548 340.1335 0001437  89.8883 270.2271 15.06394736259163
STARLINK-2714           
1 48603U 21041BC  26018.87885792  .00000853  00000+0  76131-4 0  9997
2 48603  53.0557 335.2269 0001651  88.0875 272.0304 15.06399906259245
STARLINK-2757           
1 48604U 21041BD  26018.68168173 -.00000349  00000+0 -45407-5 0  9999
2 48604  53.0560   6.1131 0001716  87.0061 273.1125 15.06395067258796
STARLINK-2739           
1 48639U 21044B   26018.88487840  .00002753  00000+0  20374-3 0  9990
2 48639  53.0556 340.2108 0001112  85.0351 275.0765 15.06381056256270
STARLINK-2736           
1 48640U 21044C   26018.87753803 -.00000485  00000+0 -13675-4 0  9995
2 48640  53.0542 340.5130 0001049  82.3045 277.8063 15.06392178256261
STARLINK-2754           
1 48641U 21044D   26019.00003472  .00052004  00000+0  24569-2 0  9996
2 48641  53.1063 344.3419 0001694  71.0865 355.2093 15.18933614  5797
